start=new Date('2022-08-26T00:00:00.000Z').valueOf();
sats=[{"GP_ID":"211010010","FILE":"3547674","REF_FRAME":"TEME","INCLINATION":"53.2211","RA_OF_ASC_NODE":"170.2040","TLE_LINE1":"1 53438U 22097BC  22237.91667824 -.00050253  00000-0 -35539-3 0  9997","REV_AT_EPOCH":"130","TLE_LINE2":"2 53438  53.2211 170.2040 0001092  82.2855 117.1366 15.73225811  1309","TIME_SYSTEM":"UTC","CENTER_NAME":"EARTH","ELEMENT_SET_NO":"999","COUNTRY_CODE":"US","OBJECT_TYPE":"PAYLOAD","SEMIMAJOR_AXIS":"6727.822","ARG_OF_PERICENTER":"82.2855","EPOCH":"2022-08-25T22:00:00.999936","MEAN_MOTION":"15.73225811","ECCENTRICITY":"0.00010920","APOAPSIS":"350.421","DECAY_DATE":null,"LAUNCH_DATE":"2022-08-10","SITE":"AFETR","PERIAPSIS":"348.952","PERIOD":"91.532","NORAD_CAT_ID":"53438","OBJECT_NAME":"STARLINK-4526","MEAN_ELEMENT_THEORY":"SGP4","CLASSIFICATION_TYPE":"U","MEAN_ANOMALY":"117.1366","OBJECT_ID":"2022-097BC","BSTAR":"-0.00035539000000","MEAN_MOTION_DOT":"-0.00050253","EPHEMERIS_TYPE":"0","MEAN_MOTION_DDOT":"0.0000000000000","RCS_SIZE":"MEDIUM"},{"OBJECT_ID":"2022-097BD","MEAN_ANOMALY":"110.4782","CLASSIFICATION_TYPE":"U","RCS_SIZE":"MEDIUM","MEAN_MOTION_DDOT":"0.0000000000000","EPHEMERIS_TYPE":"0","BSTAR":"0.00005195900000","MEAN_MOTION_DOT":"0.00006682","PERIAPSIS":"349.021","SITE":"AFETR","LAUNCH_DATE":"2022-08-10","DECAY_DATE":null,"APOAPSIS":"350.430","ECCENTRICITY":"0.00010470","MEAN_ELEMENT_THEORY":"SGP4","OBJECT_NAME":"STARLINK-4519","NORAD_CAT_ID":"53439","PERIOD":"91.532","COUNTRY_CODE":"US","OBJECT_TYPE":"PAYLOAD","ELEMENT_SET_NO":"999","CENTER_NAME":"EARTH","TIME_SYSTEM":"UTC","MEAN_MOTION":"15.73212184","ARG_OF_PERICENTER":"89.5269","EPOCH":"2022-08-25T22:00:00.999936","SEMIMAJOR_AXIS":"6727.860","TLE_LINE1":"1 53439U 22097BD  22237.91667824  .00006682  00000-0  51959-4 0  9998","RA_OF_ASC_NODE":"170.2025","INCLINATION":"53.2212","REF_FRAME":"TEME","FILE":"3547674","GP_ID":"211009153","TLE_LINE2":"2 53439  53.2212 170.2025 0001047  89.5269 110.4782 15.73212184  1300","REV_AT_EPOCH":"130"},{"NORAD_CAT_ID":"53465","PERIOD":"91.701","MEAN_ELEMENT_THEORY":"SGP4","OBJECT_NAME":"STARLINK-4415","DECAY_DATE":null,"APOAPSIS":"358.881","ECCENTRICITY":"0.00013110","PERIAPSIS":"357.114","SITE":"AFWTR","LAUNCH_DATE":"2022-08-12","EPHEMERIS_TYPE":"0","BSTAR":"-0.00046857000000","MEAN_MOTION_DOT":"-0.00056619","RCS_SIZE":null,"MEAN_MOTION_DDOT":"0.0000000000000","CLASSIFICATION_TYPE":"U","OBJECT_ID":"2022-099A","MEAN_ANOMALY":"50.6627","TLE_LINE2":"2 53465  97.6562 356.3788 0001311  83.8199  50.6627 15.70315159  1301","REV_AT_EPOCH":"130","FILE":"3547674","GP_ID":"211009437","TLE_LINE1":"1 53465U 22099A   22237.91667824 -.00056619  00000-0 -46857-3 0  9996","INCLINATION":"97.6562","RA_OF_ASC_NODE":"356.3788","REF_FRAME":"TEME","SEMIMAJOR_AXIS":"6736.133","MEAN_MOTION":"15.70315159","ARG_OF_PERICENTER":"83.8199","EPOCH":"2022-08-25T22:00:00.999936","CENTER_NAME":"EARTH","TIME_SYSTEM":"UTC","OBJECT_TYPE":"PAYLOAD","COUNTRY_CODE":"US","ELEMENT_SET_NO":"999"},{"GP_ID":"211009849","FILE":"3547674","INCLINATION":"97.6566","RA_OF_ASC_NODE":"356.3784","TLE_LINE1":"1 53466U 22099B   22237.91667824 -.00036261  00000-0 -29887-3 0  9992","REF_FRAME":"TEME","TLE_LINE2":"2 53466  97.6566 356.3784 0001490  84.0979  51.0031 15.70323337  1300","REV_AT_EPOCH":"130","CENTER_NAME":"EARTH","TIME_SYSTEM":"UTC","COUNTRY_CODE":"US","OBJECT_TYPE":"PAYLOAD","ELEMENT_SET_NO":"999","SEMIMAJOR_AXIS":"6736.109","MEAN_MOTION":"15.70323337","EPOCH":"2022-08-25T22:00:00.999936","ARG_OF_PERICENTER":"84.0979","ECCENTRICITY":"0.00014900","APOAPSIS":"358.978","DECAY_DATE":null,"SITE":"AFWTR","PERIAPSIS":"356.971","LAUNCH_DATE":"2022-08-12","NORAD_CAT_ID":"53466","PERIOD":"91.701","MEAN_ELEMENT_THEORY":"SGP4","OBJECT_NAME":"STARLINK-4398","CLASSIFICATION_TYPE":"U","MEAN_ANOMALY":"51.0031","OBJECT_ID":"2022-099B","EPHEMERIS_TYPE":"0","BSTAR":"-0.00029887000000","MEAN_MOTION_DOT":"-0.00036261","RCS_SIZE":null,"MEAN_MOTION_DDOT":"0.0000000000000"},{"SEMIMAJOR_AXIS":"6736.111","MEAN_MOTION":"15.70322787","EPOCH":"2022-08-25T22:00:00.999936","ARG_OF_PERICENTER":"87.2088","CENTER_NAME":"EARTH","TIME_SYSTEM":"UTC","COUNTRY_CODE":"US","OBJECT_TYPE":"PAYLOAD","ELEMENT_SET_NO":"999","TLE_LINE2":"2 53467  97.6569 356.3784 0001500  87.2088  48.4840 15.70322787  1308","REV_AT_EPOCH":"130","FILE":"3547674","GP_ID":"211009575","TLE_LINE1":"1 53467U 22099C   22237.91667824 -.00034474  00000-0 -28403-3 0  9990","INCLINATION":"97.6569","RA_OF_ASC_NODE":"356.3784","REF_FRAME":"TEME","EPHEMERIS_TYPE":"0","BSTAR":"-0.00028403000000","MEAN_MOTION_DOT":"-0.00034474","RCS_SIZE":null,"MEAN_MOTION_DDOT":"0.0000000000000","CLASSIFICATION_TYPE":"U","OBJECT_ID":"2022-099C","MEAN_ANOMALY":"48.4840","NORAD_CAT_ID":"53467","PERIOD":"91.701","MEAN_ELEMENT_THEORY":"SGP4","OBJECT_NAME":"STARLINK-4394","DECAY_DATE":null,"ECCENTRICITY":"0.00015000","APOAPSIS":"358.986","SITE":"AFWTR","PERIAPSIS":"356.965","LAUNCH_DATE":"2022-08-12"},{"REV_AT_EPOCH":"130","TLE_LINE2":"2 53468  97.6567 356.3789 0001034  80.5152  55.6829 15.70348449  1302","REF_FRAME":"TEME","INCLINATION":"97.6567","RA_OF_ASC_NODE":"356.3789","TLE_LINE1":"1 53468U 22099D   22237.91667824 -.00033313  00000-0 -27411-3 0  9990","GP_ID":"211009707","FILE":"3547674","ARG_OF_PERICENTER":"80.5152","EPOCH":"2022-08-25T22:00:00.999936","MEAN_MOTION":"15.70348449","SEMIMAJOR_AXIS":"6736.037","ELEMENT_SET_NO":"999","COUNTRY_CODE":"US","OBJECT_TYPE":"PAYLOAD","TIME_SYSTEM":"UTC","CENTER_NAME":"EARTH","OBJECT_NAME":"STARLINK-4400","MEAN_ELEMENT_THEORY":"SGP4","PERIOD":"91.699","NORAD_CAT_ID":"53468","LAUNCH_DATE":"2022-08-12","PERIAPSIS":"357.206","SITE":"AFWTR","APOAPSIS":"358.599","ECCENTRICITY":"0.00010340","DECAY_DATE":null,"MEAN_MOTION_DDOT":"0.0000000000000","RCS_SIZE":null,"MEAN_MOTION_DOT":"-0.00033313","BSTAR":"-0.00027411000000","EPHEMERIS_TYPE":"0","MEAN_ANOMALY":"55.6829","OBJECT_ID":"2022-099D","CLASSIFICATION_TYPE":"U"},{"TIME_SYSTEM":"UTC","CENTER_NAME":"EARTH","ELEMENT_SET_NO":"999","COUNTRY_CODE":"US","OBJECT_TYPE":"PAYLOAD","SEMIMAJOR_AXIS":"6736.077","ARG_OF_PERICENTER":"75.7879","EPOCH":"2022-08-25T22:00:00.999936","MEAN_MOTION":"15.70334622","FILE":"3547674","GP_ID":"211009020","REF_FRAME":"TEME","TLE_LINE1":"1 53469U 22099E   22237.91667824 -.00060216  00000-0 -49821-3 0  9992","RA_OF_ASC_NODE":"356.3805","INCLINATION":"97.6558","REV_AT_EPOCH":"130","TLE_LINE2":"2 53469  97.6558 356.3805 0001499  75.7879  61.6537 15.70334622  1300","CLASSIFICATION_TYPE":"U","OBJECT_ID":"2022-099E","MEAN_ANOMALY":"61.6537","MEAN_MOTION_DOT":"-0.00060216","BSTAR":"-0.00049821000000","EPHEMERIS_TYPE":"0","MEAN_MOTION_DDOT":"0.0000000000000","RCS_SIZE":null,"DECAY_DATE":null,"APOAPSIS":"358.952","ECCENTRICITY":"0.00014990","LAUNCH_DATE":"2022-08-12","PERIAPSIS":"356.932","SITE":"AFWTR","PERIOD":"91.700","NORAD_CAT_ID":"53469","OBJECT_NAME":"STARLINK-4399","MEAN_ELEMENT_THEORY":"SGP4"},{"RCS_SIZE":null,"MEAN_MOTION_DDOT":"0.0000000000000","EPHEMERIS_TYPE":"0","BSTAR":"-0.00027046000000","MEAN_MOTION_DOT":"-0.00032815","OBJECT_ID":"2022-099F","MEAN_ANOMALY":"61.6610","CLASSIFICATION_TYPE":"U","MEAN_ELEMENT_THEORY":"SGP4","OBJECT_NAME":"STARLINK-4393","NORAD_CAT_ID":"53470","PERIOD":"91.702","SITE":"AFWTR","PERIAPSIS":"356.856","LAUNCH_DATE":"2022-08-12","DECAY_DATE":null,"ECCENTRICITY":"0.00017410","APOAPSIS":"359.202","MEAN_MOTION":"15.70304247","ARG_OF_PERICENTER":"75.2556","EPOCH":"2022-08-25T22:00:00.999936","SEMIMAJOR_AXIS":"6736.164","OBJECT_TYPE":"PAYLOAD","COUNTRY_CODE":"US","ELEMENT_SET_NO":"999","CENTER_NAME":"EARTH","TIME_SYSTEM":"UTC","TLE_LINE2":"2 53470  97.6574 356.3793 0001741  75.2556  61.6610 15.70304247  1305","REV_AT_EPOCH":"130","TLE_LINE1":"1 53470U 22099F   22237.91667824 -.00032815  00000-0 -27046-3 0  9993","RA_OF_ASC_NODE":"356.3793","INCLINATION":"97.6574","REF_FRAME":"TEME","FILE":"3547674","GP_ID":"211010014"},{"OBJECT_NAME":"STARLINK-4316","MEAN_ELEMENT_THEORY":"SGP4","PERIOD":"91.699","NORAD_CAT_ID":"53471","LAUNCH_DATE":"2022-08-12","PERIAPSIS":"356.950","SITE":"AFWTR","APOAPSIS":"358.782","ECCENTRICITY":"0.00013600","DECAY_DATE":null,"MEAN_MOTION_DDOT":"0.0000000000000","RCS_SIZE":null,"BSTAR":"-0.00025993000000","MEAN_MOTION_DOT":"-0.00031620","EPHEMERIS_TYPE":"0","MEAN_ANOMALY":"67.4786","OBJECT_ID":"2022-099G","CLASSIFICATION_TYPE":"U","REV_AT_EPOCH":"130","TLE_LINE2":"2 53471  97.6570 356.3802 0001360  71.0187  67.4786 15.70361038  1303","REF_FRAME":"TEME","INCLINATION":"97.6570","RA_OF_ASC_NODE":"356.3802","TLE_LINE1":"1 53471U 22099G   22237.91667824 -.00031620  00000-0 -25993-3 0  9996","GP_ID":"211009157","FILE":"3547674","EPOCH":"2022-08-25T22:00:00.999936","ARG_OF_PERICENTER":"71.0187","MEAN_MOTION":"15.70361038","SEMIMAJOR_AXIS":"6736.001","ELEMENT_SET_NO":"999","COUNTRY_CODE":"US","OBJECT_TYPE":"PAYLOAD","TIME_SYSTEM":"UTC","CENTER_NAME":"EARTH"},{"OBJECT_NAME":"STARLINK-4447","MEAN_ELEMENT_THEORY":"SGP4","PERIOD":"91.703","NORAD_CAT_ID":"53472","LAUNCH_DATE":"2022-08-12","SITE":"AFWTR","PERIAPSIS":"356.950","DECAY_DATE":null,"ECCENTRICITY":"0.00016640","APOAPSIS":"359.191","MEAN_MOTION_DDOT":"0.0000000000000","RCS_SIZE":null,"BSTAR":"-0.00053208000000","MEAN_MOTION_DOT":"-0.00064152","EPHEMERIS_TYPE":"0","OBJECT_ID":"2022-099H","MEAN_ANOMALY":"59.5066","CLASSIFICATION_TYPE":"U","REV_AT_EPOCH":"130","TLE_LINE2":"2 53472  97.6568 356.3801 0001664  78.5469  59.5066 15.70289682  1309","REF_FRAME":"TEME","TLE_LINE1":"1 53472U 22099H   22237.91667824 -.00064152  00000-0 -53208-3 0  9993","RA_OF_ASC_NODE":"356.3801","INCLINATION":"97.6568","FILE":"3547674","GP_ID":"211009871","ARG_OF_PERICENTER":"78.5469","EPOCH":"2022-08-25T22:00:00.999936","MEAN_MOTION":"15.70289682","SEMIMAJOR_AXIS":"6736.205","ELEMENT_SET_NO":"999","OBJECT_TYPE":"PAYLOAD","COUNTRY_CODE":"US","TIME_SYSTEM":"UTC","CENTER_NAME":"EARTH"}];
